{"fetched_at":"2026-07-24T07:06:08.057Z","source":"https://celestrak.org/NORAD/elements/gp.php?GROUP=oneweb&FORMAT=JSON","constellation":"oneweb","records":[{"OBJECT_NAME":"ONEWEB-0159","OBJECT_ID":"2021-025W","EPOCH":"2026-07-23T18:08:55.579776","CLASSIFICATION_TYPE":"U","MEAN_MOTION":13.13470451,"ECCENTRICITY":0.000214,"INCLINATION":87.8991,"RA_OF_ASC_NODE":312.9418,"ARG_OF_PERICENTER":95.9836,"MEAN_ANOMALY":264.1537,"EPHEMERIS_TYPE":0,"NORAD_CAT_ID":48062,"ELEMENT_SET_NO":999,"REV_AT_EPOCH":25840,"BSTAR":0.0010218,"MEAN_MOTION_DOT":0.00000386,"MEAN_MOTION_DDOT":0},{"OBJECT_NAME":"ONEWEB-0164","OBJECT_ID":"2021-025X","EPOCH":"2026-07-23T17:42:06.543936","CLASSIFICATION_TYPE":"U","MEAN_MOTION":13.13470178,"ECCENTRICITY":0.0001956,"INCLINATION":87.8987,"RA_OF_ASC_NODE":312.9516,"ARG_OF_PERICENTER":102.2578,"MEAN_ANOMALY":257.877,"EPHEMERIS_TYPE":0,"NORAD_CAT_ID":48063,"ELEMENT_SET_NO":999,"REV_AT_EPOCH":25838,"BSTAR":0.00024839,"MEAN_MOTION_DOT":0.00000103,"MEAN_MOTION_DDOT":0},{"OBJECT_NAME":"ONEWEB-0167","OBJECT_ID":"2021-025Y","EPOCH":"2026-07-23T12:53:15.267264","CLASSIFICATION_TYPE":"U","MEAN_MOTION":13.13469906,"ECCENTRICITY":0.0002629,"INCLINATION":87.8985,"RA_OF_ASC_NODE":312.9981,"ARG_OF_PERICENTER":102.3366,"MEAN_ANOMALY":257.8058,"EPHEMERIS_TYPE":0,"NORAD_CAT_ID":48064,"ELEMENT_SET_NO":999,"REV_AT_EPOCH":25834,"BSTAR":0.00036622,"MEAN_MOTION_DOT":0.00000146,"MEAN_MOTION_DDOT":0},{"OBJECT_NAME":"ONEWEB-0166","OBJECT_ID":"2021-025Z","EPOCH":"2026-07-23T20:44:55.934592","CLASSIFICATION_TYPE":"U","MEAN_MOTION":13.13470421,"ECCENTRICITY":0.0001941,"INCLINATION":87.899,"RA_OF_ASC_NODE":312.9076,"ARG_OF_PERICENTER":98.0928,"MEAN_ANOMALY":262.0421,"EPHEMERIS_TYPE":0,"NORAD_CAT_ID":48065,"ELEMENT_SET_NO":999,"REV_AT_EPOCH":25846,"BSTAR":-0.00077582,"MEAN_MOTION_DOT":-0.00000271,"MEAN_MOTION_DDOT":0},{"OBJECT_NAME":"ONEWEB-0151","OBJECT_ID":"2021-025AA","EPOCH":"2026-07-23T13:28:34.447584","CLASSIFICATION_TYPE":"U","MEAN_MOTION":13.13470463,"ECCENTRICITY":0.0002088,"INCLINATION":87.899,"RA_OF_ASC_NODE":312.9827,"ARG_OF_PERICENTER":101.7905,"MEAN_ANOMALY":258.3459,"EPHEMERIS_TYPE":0,"NORAD_CAT_ID":48066,"ELEMENT_SET_NO":999,"REV_AT_EPOCH":25836,"BSTAR":-0.00067592,"MEAN_MOTION_DOT":-0.00000234,"MEAN_MOTION_DDOT":0},{"OBJECT_NAME":"ONEWEB-0170","OBJECT_ID":"2021-025AB","EPOCH":"2026-07-23T17:20:09.655872","CLASSIFICATION_TYPE":"U","MEAN_MOTION":13.1347005,"ECCENTRICITY":0.0002075,"INCLINATION":87.8995,"RA_OF_ASC_NODE":312.9531,"ARG_OF_PERICENTER":115.5489,"MEAN_ANOMALY":244.5855,"EPHEMERIS_TYPE":0,"NORAD_CAT_ID":48067,"ELEMENT_SET_NO":999,"REV_AT_EPOCH":25834,"BSTAR":-0.00085443,"MEAN_MOTION_DOT":-0.00000299,"MEAN_MOTION_DDOT":0},{"OBJECT_NAME":"ONEWEB-0168","OBJECT_ID":"2021-025AC","EPOCH":"2026-07-23T07:49:44.811840","CLASSIFICATION_TYPE":"U","MEAN_MOTION":13.13469944,"ECCENTRICITY":0.0002019,"INCLINATION":87.8994,"RA_OF_ASC_NODE":313.0334,"ARG_OF_PERICENTER":100.9414,"MEAN_ANOMALY":259.1942,"EPHEMERIS_TYPE":0,"NORAD_CAT_ID":48068,"ELEMENT_SET_NO":999,"REV_AT_EPOCH":25830,"BSTAR":-0.00075963,"MEAN_MOTION_DOT":-0.00000265,"MEAN_MOTION_DDOT":0},{"OBJECT_NAME":"ONEWEB-0173","OBJECT_ID":"2021-025AD","EPOCH":"2026-07-23T16:46:02.493408","CLASSIFICATION_TYPE":"U","MEAN_MOTION":13.13469402,"ECCENTRICITY":0.0002307,"INCLINATION":87.8986,"RA_OF_ASC_NODE":312.9586,"ARG_OF_PERICENTER":96.6863,"MEAN_ANOMALY":263.4528,"EPHEMERIS_TYPE":0,"NORAD_CAT_ID":48069,"ELEMENT_SET_NO":999,"REV_AT_EPOCH":25859,"BSTAR":-0.00034673,"MEAN_MOTION_DOT":-0.00000114,"MEAN_MOTION_DDOT":0},{"OBJECT_NAME":"ONEWEB-0171","OBJECT_ID":"2021-025AE","EPOCH":"2026-07-23T17:39:40.190112","CLASSIFICATION_TYPE":"U","MEAN_MOTION":13.13470527,"ECCENTRICITY":0.0002003,"INCLINATION":87.8984,"RA_OF_ASC_NODE":312.9579,"ARG_OF_PERICENTER":102.2293,"MEAN_ANOMALY":257.9061,"EPHEMERIS_TYPE":0,"NORAD_CAT_ID":48070,"ELEMENT_SET_NO":999,"REV_AT_EPOCH":25841,"BSTAR":0.000077642,"MEAN_MOTION_DOT":4.1e-7,"MEAN_MOTION_DDOT":0},{"OBJECT_NAME":"ONEWEB-0172","OBJECT_ID":"2021-025AF","EPOCH":"2026-07-23T17:10:23.774016","CLASSIFICATION_TYPE":"U","MEAN_MOTION":13.13471207,"ECCENTRICITY":0.0002127,"INCLINATION":87.899,"RA_OF_ASC_NODE":312.9547,"ARG_OF_PERICENTER":100.3311,"MEAN_ANOMALY":259.8058,"EPHEMERIS_TYPE":0,"NORAD_CAT_ID":48071,"ELEMENT_SET_NO":999,"REV_AT_EPOCH":25930,"BSTAR":-0.00093237,"MEAN_MOTION_DOT":-0.00000328,"MEAN_MOTION_DDOT":0},{"OBJECT_NAME":"ONEWEB-0174","OBJECT_ID":"2021-025AG","EPOCH":"2026-07-23T07:35:07.801728","CLASSIFICATION_TYPE":"U","MEAN_MOTION":13.13469637,"ECCENTRICITY":0.0001927,"INCLINATION":87.8991,"RA_OF_ASC_NODE":313.033,"ARG_OF_PERICENTER":95.4375,"MEAN_ANOMALY":264.6974,"EPHEMERIS_TYPE":0,"NORAD_CAT_ID":48072,"ELEMENT_SET_NO":999,"REV_AT_EPOCH":25857,"BSTAR":-0.00015536,"MEAN_MOTION_DOT":-4.4e-7,"MEAN_MOTION_DDOT":0},{"OBJECT_NAME":"ONEWEB-0175","OBJECT_ID":"2021-025AH","EPOCH":"2026-07-23T08:19:00.053760","CLASSIFICATION_TYPE":"U","MEAN_MOTION":13.13470234,"ECCENTRICITY":0.0002228,"INCLINATION":87.8993,"RA_OF_ASC_NODE":313.0124,"ARG_OF_PERICENTER":107.0791,"MEAN_ANOMALY":253.0582,"EPHEMERIS_TYPE":0,"NORAD_CAT_ID":48073,"ELEMENT_SET_NO":999,"REV_AT_EPOCH":25823,"BSTAR":-0.00031796,"MEAN_MOTION_DOT":-0.00000103,"MEAN_MOTION_DDOT":0},{"OBJECT_NAME":"ONEWEB-0177","OBJECT_ID":"2021-025AJ","EPOCH":"2026-07-23T17:44:32.582400","CLASSIFICATION_TYPE":"U","MEAN_MOTION":13.13471157,"ECCENTRICITY":0.0002016,"INCLINATION":87.8987,"RA_OF_ASC_NODE":312.9517,"ARG_OF_PERICENTER":93.3071,"MEAN_ANOMALY":266.8289,"EPHEMERIS_TYPE":0,"NORAD_CAT_ID":48074,"ELEMENT_SET_NO":999,"REV_AT_EPOCH":25847,"BSTAR":0.00042265,"MEAN_MOTION_DOT":0.00000167,"MEAN_MOTION_DDOT":0},{"OBJECT_NAME":"ONEWEB-0178","OBJECT_ID":"2021-025AK","EPOCH":"2026-07-23T12:42:28.157184","CLASSIFICATION_TYPE":"U","MEAN_MOTION":13.13470833,"ECCENTRICITY":0.0002221,"INCLINATION":87.898,"RA_OF_ASC_NODE":313.0026,"ARG_OF_PERICENTER":101.0783,"MEAN_ANOMALY":259.0596,"EPHEMERIS_TYPE":0,"NORAD_CAT_ID":48075,"ELEMENT_SET_NO":999,"REV_AT_EPOCH":25849,"BSTAR":0.00086214,"MEAN_MOTION_DOT":0.00000328,"MEAN_MOTION_DDOT":0},{"OBJECT_NAME":"ONEWEB-0108","OBJECT_ID":"2021-025AL","EPOCH":"2026-07-23T17:12:51.124032","CLASSIFICATION_TYPE":"U","MEAN_MOTION":13.13470058,"ECCENTRICITY":0.0001717,"INCLINATION":87.899,"RA_OF_ASC_NODE":312.9483,"ARG_OF_PERICENTER":99.0909,"MEAN_ANOMALY":261.0414,"EPHEMERIS_TYPE":0,"NORAD_CAT_ID":48076,"ELEMENT_SET_NO":999,"REV_AT_EPOCH":25844,"BSTAR":-0.0009321,"MEAN_MOTION_DOT":-0.00000328,"MEAN_MOTION_DDOT":0},{"OBJECT_NAME":"ONEWEB-0169","OBJECT_ID":"2021-025AM","EPOCH":"2026-07-23T17:59:10.712256","CLASSIFICATION_TYPE":"U","MEAN_MOTION":13.13470021,"ECCENTRICITY":0.0001945,"INCLINATION":87.8983,"RA_OF_ASC_NODE":312.9479,"ARG_OF_PERICENTER":96.8408,"MEAN_ANOMALY":263.2943,"EPHEMERIS_TYPE":0,"NORAD_CAT_ID":48077,"ELEMENT_SET_NO":999,"REV_AT_EPOCH":25710,"BSTAR":0.00083577,"MEAN_MOTION_DOT":0.00000318,"MEAN_MOTION_DDOT":0}]}
